{
  "type": "FeatureCollection",
  "features": [
    {
      "type": "Feature",
      "properties": {
        "norad_id": 66561,
        "name": "STARLINK-35305",
        "group": "last-30-days",
        "lat": 0.6258229147793817,
        "lon": -118.41451326198896,
        "alt_km": 397.9480294503064,
        "timestamp": "2025-12-22T18:58:52.136490+00:00",
        "meta_object_name": "STARLINK-35305",
        "meta_object_id": "2025-268E",
        "meta_epoch": "2025-12-22T06:00:02.000160",
        "meta_mean_motion": 15.56451349,
        "meta_eccentricity": 0.00014694,
        "meta_inclination": 43.0005,
        "meta_ra_of_asc_node": 65.4492,
        "meta_arg_of_pericenter": 263.3539,
        "meta_mean_anomaly": 121.5798,
        "meta_ephemeris_type": 0,
        "meta_classification_type": "U",
        "meta_norad_cat_id": 66561,
        "meta_element_set_no": 999,
        "meta_rev_at_epoch": 609,
        "meta_bstar": -0.0015762448,
        "meta_mean_motion_dot": -0.00113271,
        "meta_mean_motion_ddot": 0,
        "tle_line1": "1 66561U 25268E   25356.25002315 -.00113271  00000+0 -15762-2 0  9995",
        "tle_line2": "2 66561  43.0005  65.4492 0001469 263.3539 121.5798 15.56451349  6090"
      },
      "geometry": {
        "type": "Point",
        "coordinates": [
          -118.41451326198896,
          0.6258229147793817
        ]
      }
    },
    {
      "type": "Feature",
      "properties": {
        "norad_id": 66562,
        "name": "STARLINK-35579",
        "group": "last-30-days",
        "lat": 1.9363666747628436,
        "lon": -119.8172838245073,
        "alt_km": 397.7964954146755,
        "timestamp": "2025-12-22T18:58:52.136502+00:00",
        "meta_object_name": "STARLINK-35579",
        "meta_object_id": "2025-268F",
        "meta_epoch": "2025-12-22T06:00:02.000160",
        "meta_mean_motion": 15.56475919,
        "meta_eccentricity": 0.00016338,
        "meta_inclination": 43.0006,
        "meta_ra_of_asc_node": 65.454,
        "meta_arg_of_pericenter": 259.5943,
        "meta_mean_anomaly": 123.4166,
        "meta_ephemeris_type": 0,
        "meta_classification_type": "U",
        "meta_norad_cat_id": 66562,
        "meta_element_set_no": 999,
        "meta_rev_at_epoch": 609,
        "meta_bstar": -0.0021750779,
        "meta_mean_motion_dot": -0.00155491,
        "meta_mean_motion_ddot": 0,
        "tle_line1": "1 66562U 25268F   25356.25002315 -.00155491  00000+0 -21751-2 0  9991",
        "tle_line2": "2 66562  43.0006  65.4540 0001633 259.5943 123.4166 15.56475919  6094"
      },
      "geometry": {
        "type": "Point",
        "coordinates": [
          -119.8172838245073,
          1.9363666747628436
        ]
      }
    },
    {
      "type": "Feature",
      "properties": {
        "norad_id": 66563,
        "name": "STARLINK-35437",
        "group": "last-30-days",
        "lat": -0.6800238670859245,
        "lon": -117.01829051282068,
        "alt_km": 397.95497697686733,
        "timestamp": "2025-12-22T18:58:52.136513+00:00",
        "meta_object_name": "STARLINK-35437",
        "meta_object_id": "2025-268G",
        "meta_epoch": "2025-12-22T06:00:02.000160",
        "meta_mean_motion": 15.56456563,
        "meta_eccentricity": 0.00016236,
        "meta_inclination": 43.0005,
        "meta_ra_of_asc_node": 65.444,
        "meta_arg_of_pericenter": 256.6581,
        "meta_mean_anomaly": 130.19,
        "meta_ephemeris_type": 0,
        "meta_classification_type": "U",
        "meta_norad_cat_id": 66563,
        "meta_element_set_no": 999,
        "meta_rev_at_epoch": 609,
        "meta_bstar": -0.0016783754,
        "meta_mean_motion_dot": -0.00120504,
        "meta_mean_motion_ddot": 0,
        "tle_line1": "1 66563U 25268G   25356.25002315 -.00120504  00000+0 -16784-2 0  9999",
        "tle_line2": "2 66563  43.0005  65.4440 0001623 256.6581 130.1900 15.56456563  6093"
      },
      "geometry": {
        "type": "Point",
        "coordinates": [
          -117.01829051282068,
          -0.6800238670859245
        ]
      }
    },
    {
      "type": "Feature",
      "properties": {
        "norad_id": 66564,
        "name": "STARLINK-35358",
        "group": "last-30-days",
        "lat": -1.9850140122118574,
        "lon": -115.62128472287766,
        "alt_km": 398.17614293206043,
        "timestamp": "2025-12-22T18:58:52.136529+00:00",
        "meta_object_name": "STARLINK-35358",
        "meta_object_id": "2025-268H",
        "meta_epoch": "2025-12-22T06:00:02.000160",
        "meta_mean_motion": 15.56462844,
        "meta_eccentricity": 0.00015662,
        "meta_inclination": 43.0005,
        "meta_ra_of_asc_node": 65.4393,
        "meta_arg_of_pericenter": 259.9936,
        "meta_mean_anomaly": 128.7696,
        "meta_ephemeris_type": 0,
        "meta_classification_type": "U",
        "meta_norad_cat_id": 66564,
        "meta_element_set_no": 999,
        "meta_rev_at_epoch": 609,
        "meta_bstar": -0.0018506039,
        "meta_mean_motion_dot": -0.00132661,
        "meta_mean_motion_ddot": 0,
        "tle_line1": "1 66564U 25268H   25356.25002315 -.00132661  00000+0 -18506-2 0  9991",
        "tle_line2": "2 66564  43.0005  65.4393 0001566 259.9936 128.7696 15.56462844  6091"
      },
      "geometry": {
        "type": "Point",
        "coordinates": [
          -115.62128472287766,
          -1.9850140122118574
        ]
      }
    },
    {
      "type": "Feature",
      "properties": {
        "norad_id": 66565,
        "name": "STARLINK-35893",
        "group": "last-30-days",
        "lat": -3.290558611846047,
        "lon": -114.2204777594624,
        "alt_km": 398.45691417369653,
        "timestamp": "2025-12-22T18:58:52.136540+00:00",
        "meta_object_name": "STARLINK-35893",
        "meta_object_id": "2025-268J",
        "meta_epoch": "2025-12-22T06:00:02.000160",
        "meta_mean_motion": 15.56450626,
        "meta_eccentricity": 0.00016883,
        "meta_inclination": 43.0005,
        "meta_ra_of_asc_node": 65.4343,
        "meta_arg_of_pericenter": 269.4705,
        "meta_mean_anomaly": 121.2155,
        "meta_ephemeris_type": 0,
        "meta_classification_type": "U",
        "meta_norad_cat_id": 66565,
        "meta_element_set_no": 999,
        "meta_rev_at_epoch": 609,
        "meta_bstar": -0.0015889332,
        "meta_mean_motion_dot": -0.00114167,
        "meta_mean_motion_ddot": 0,
        "tle_line1": "1 66565U 25268J   25356.25002315 -.00114167  00000+0 -15889-2 0  9994",
        "tle_line2": "2 66565  43.0005  65.4343 0001688 269.4705 121.2155 15.56450626  6095"
      },
      "geometry": {
        "type": "Point",
        "coordinates": [
          -114.2204777594624,
          -3.290558611846047
        ]
      }
    },
    {
      "type": "Feature",
      "properties": {
        "norad_id": 66566,
        "name": "STARLINK-35871",
        "group": "last-30-days",
        "lat": -4.592791585557989,
        "lon": -112.8170555028457,
        "alt_km": 398.44397719850167,
        "timestamp": "2025-12-22T18:58:52.136551+00:00",
        "meta_object_name": "STARLINK-35871",
        "meta_object_id": "2025-268K",
        "meta_epoch": "2025-12-22T06:00:02.000160",
        "meta_mean_motion": 15.56475546,
        "meta_eccentricity": 0.00016076,
        "meta_inclination": 43.0006,
        "meta_ra_of_asc_node": 65.4297,
        "meta_arg_of_pericenter": 259.1997,
        "meta_mean_anomaly": 133.3972,
        "meta_ephemeris_type": 0,
        "meta_classification_type": "U",
        "meta_norad_cat_id": 66566,
        "meta_element_set_no": 999,
        "meta_rev_at_epoch": 609,
        "meta_bstar": -0.0021820775,
        "meta_mean_motion_dot": -0.00155978,
        "meta_mean_motion_ddot": 0,
        "tle_line1": "1 66566U 25268K   25356.25002315 -.00155978  00000+0 -21821-2 0  9993",
        "tle_line2": "2 66566  43.0006  65.4297 0001607 259.1997 133.3972 15.56475546  6094"
      },
      "geometry": {
        "type": "Point",
        "coordinates": [
          -112.8170555028457,
          -4.592791585557989
        ]
      }
    },
    {
      "type": "Feature",
      "properties": {
        "norad_id": 66567,
        "name": "STARLINK-35825",
        "group": "last-30-days",
        "lat": -5.895720930299109,
        "lon": -111.40469750540242,
        "alt_km": 398.7730615126957,
        "timestamp": "2025-12-22T18:58:52.136562+00:00",
        "meta_object_name": "STARLINK-35825",
        "meta_object_id": "2025-268L",
        "meta_epoch": "2025-12-22T06:00:02.000160",
        "meta_mean_motion": 15.56492717,
        "meta_eccentricity": 0.00015171,
        "meta_inclination": 43.0006,
        "meta_ra_of_asc_node": 65.4251,
        "meta_arg_of_pericenter": 267.7704,
        "meta_mean_anomaly": 126.7427,
        "meta_ephemeris_type": 0,
        "meta_classification_type": "U",
        "meta_norad_cat_id": 66567,
        "meta_element_set_no": 999,
        "meta_rev_at_epoch": 609,
        "meta_bstar": -0.0025677848,
        "meta_mean_motion_dot": -0.00182984,
        "meta_mean_motion_ddot": 0,
        "tle_line1": "1 66567U 25268L   25356.25002315 -.00182984  00000+0 -25678-2 0  9995",
        "tle_line2": "2 66567  43.0006  65.4251 0001517 267.7704 126.7427 15.56492717  6096"
      },
      "geometry": {
        "type": "Point",
        "coordinates": [
          -111.40469750540242,
          -5.895720930299109
        ]
      }
    }
  ]
}